	<Item RAAN="140.009999999999990"/>
	<Item ECCENTRICITY="0.002929900000000"/>
	<Item PERIGEE="92.011700000000005"/>
	<Item MEAN_ANOMALY="268.432000000000020"/>
	<Item MEAN_MOTION="14.464600000000001"/>
	<Item Nation="5"/>
	<Item FlatType="1"/>
	<Item Mission="1"/>
	<Item SecretRank="0"/>
	<Item Apogee="757.000000000000000"/>
	<Item SatIconName="1.png#1.png"/>
	<Item SatModelName="北斗导航试验卫星"/>
</SateliteInfo>
<SateliteInfo>
	<Item ID="234"/>
	<Item NAME="00234"/>
	<Item TLE="1 00234U 61015BS  10107.90007619  .00000054  00000-0  86580-4 0  6653 2 00234  66.8767  45.7122 0064992  99.7894 261.0533 14.00746755484272"/>
	<Item INCLINATION="66.876700000000000"/>
	<Item RAAN="45.712200000000003"/>
	<Item ECCENTRICITY="0.006499200000000"/>
	<Item PERIGEE="99.789400000000001"/>
	<Item MEAN_ANOMALY="261.053000000000000"/>
	<Item MEAN_MOTION="14.007500000000000"/>
	<Item Nation="6"/>
	<Item FlatType="2"/>
	<Item Mission="2"/>
	<Item SecretRank="0"/>
	<Item Apogee="938.000000000000000"/>
	<Item SatIconName="1.png#1.png"/>
	<Item SatModelName="北斗导航试验卫星"/>
</SateliteInfo>
<SateliteInfo>
	<Item ID="235"/>
	<Item NAME="00235"/>
	<Item TLE="1 00235U 61015BT  10108.93188228  .00000017  00000-0  51083-4 0  3065 2 00235  66.9538 268.0346 0162842  83.8291 278.1340 14.06631403490479"/>
	<Item INCLINATION="66.953800000000001"/>
	<Item RAAN="268.035000000000030"/>
	<Item ECCENTRICITY="0.016284200000000"/>
	<Item PERIGEE="83.829099999999997"/>
	<Item MEAN_ANOMALY="278.134000000000010"/>
	<Item MEAN_MOTION="14.066300000000000"/>
	<Item Nation="7"/>
	<Item FlatType="1"/>
	<Item Mission="3"/>
	<Item SecretRank="0"/>
	<Item Apogee="988.000000000000000"/>
	<Item SatIconName="1.png#1.png"/>
	<Item SatModelName="北斗导航试验卫星"/>
</SateliteInfo>
<SateliteInfo>
	<Item ID="243"/>
	<Item NAME="00243"/>
	<Item TLE="1 00243U 61015BY  10109.11335290  .00000287  00000-0  27703-3 0  5868 2 00243  66.4715   2.8310 0037683 261.6692  98.0118 13.93641616459390"/>
	<Item INCLINATION="66.471500000000006"/>
	<Item RAAN="2.831000000000000"/>
	<Item ECCENTRICITY="0.003768300000000"/>
	<Item PERIGEE="261.668999999999980"/>
	<Item MEAN_ANOMALY="98.011799999999994"/>
	<Item MEAN_MOTION="13.936400000000001"/>
	<Item Nation="8"/>
	<Item FlatType="2"/>
	<Item Mission="4"/>
	<Item SecretRank="0"/>
	<Item Apogee="943.000000000000000"/>
	<Item SatIconName="1.png#1.png"/>
	<Item SatModelName="北斗导航试验卫星"/>
</SateliteInfo>
<SateliteInfo>
	<Item ID="244"/>
	<Item NAME="00244"/>
	<Item TLE="1 00244U 61015BZ  10108.95842069  .00000020  00000-0  72140-4 0  9378 2 00244  66.8407 309.2168 0075265 313.6897  45.7969 13.93726717476478"/>
	<Item INCLINATION="66.840699999999998"/>
	<Item RAAN="309.216999999999980"/>
	<Item ECCENTRICITY="0.007526500000000"/>
	<Item PERIGEE="313.690000000000000"/>
	<Item MEAN_ANOMALY="45.796900000000001"/>
	<Item MEAN_MOTION="13.937300000000000"/>
	<Item Nation="1"/>
	<Item FlatType="1"/>
	<Item Mission="1"/>
	<Item SecretRank="0"/>
	<Item Apogee="970.000000000000000"/>
	<Item SatIconName="1.png#1.png"/>
	<Item SatModelName="北斗导航试验卫星"/>
</SateliteInfo>
<SateliteInfo>
	<Item ID="245"/>
	<Item NAME="00245"/>
	<Item TLE="1 00245U 61015CA  10109.17676384 -.00000203  00000-0 -63753-4 0  9318 2 00245  66.0715  98.7367 0057731 357.8150   2.2647 14.10686997493952"/>
	<Item INCLINATION="66.071500000000000"/>
	<Item RAAN="98.736699999999999"/>
	<Item ECCENTRICITY="0.005773100000000"/>
	<Item PERIGEE="357.815000000000000"/>
	<Item MEAN_ANOMALY="2.264700000000000"/>
	<Item MEAN_MOTION="14.106900000000000"/>
	<Item Nation="2"/>
	<Item FlatType="2"/>
	<Item Mission="2"/>
	<Item SecretRank="0"/>
	<Item Apogee="898.000000000000000"/>
	<Item SatIconName="1.png#1.png"/>
	<Item SatModelName="北斗导航试验卫星"/>
</SateliteInfo>
<SateliteInfo>
	<Item ID="246"/>
	<Item NAME="00246"/>
	<Item TLE="1 00246U 61015CB  10107.90877276 -.00000044  00000-0  27362-4 0  1322 2 00246  66.8681  45.0922 0068076 331.9190  27.8215 13.85429823806301"/>
	<Item INCLINATION="66.868099999999998"/>
	<Item RAAN="45.092199999999998"/>
	<Item ECCENTRICITY="0.006807600000000"/>
	<Item PERIGEE="331.918999999999980"/>
	<Item MEAN_ANOMALY="27.821500000000000"/>
	<Item MEAN_MOTION="13.854300000000000"/>
	<Item Nation="3"/>
	<Item FlatType="1"/>
	<Item Mission="3"/>
	<Item SecretRank="0"/>
	<Item Apogee="994.000000000000000"/>
	<Item SatIconName="1.png#1.png"/>
	<Item SatModelName="北斗导航试验卫星"/>
</SateliteInfo>
<SateliteInfo>
	<Item ID="253"/>
	<Item NAME="00253"/>
	<Item TLE="1 00253U 61015CE  10108.88745788  .00000712  00000-0  22277-3 0  8811 2 00253  66.9319 271.8421 0037311 193.9232 166.0855 14.45968836516697"/>
	<Item INCLINATION="66.931899999999999"/>
	<Item RAAN="271.841999999999980"/>
	<Item ECCENTRICITY="0.003731100000000"/>
	<Item PERIGEE="193.923000000000000"/>
	<Item MEAN_ANOMALY="166.085000000000010"/>
	<Item MEAN_MOTION="14.459700000000000"/>
	<Item Nation="5"/>
	<Item FlatType="1"/>
	<Item Mission="1"/>
	<Item SecretRank="0"/>
	<Item Apogee="765.000000000000000"/>
	<Item SatIconName="1.png#1.png"/>
	<Item SatModelName="北斗导航试验卫星"/>
</SateliteInfo>
<SateliteInfo>
	<Item ID="254"/>
	<Item NAME="00254"/>
	<Item TLE="1 00254U 61015CF  10109.18271905  .00000393  00000-0  15781-3 0  8324 2 00254  66.7792 137.5355 0082495 216.4388 143.1071 14.36409155522968"/>
	<Item INCLINATION="66.779200000000003"/>
	<Item RAAN="137.536000000000000"/>
	<Item ECCENTRICITY="0.008249500000000"/>
	<Item PERIGEE="216.438999999999990"/>
	<Item MEAN_ANOMALY="143.107000000000000"/>
	<Item MEAN_MOTION="14.364100000000001"/>
	<Item Nation="6"/>
	<Item FlatType="2"/>
	<Item Mission="2"/>
	<Item SecretRank="0"/>
	<Item Apogee="829.000000000000000"/>
	<Item SatIconName="1.png#1.png"/>
	<Item SatModelName="北斗导航试验卫星"/>
</SateliteInfo>
<SateliteInfo>
	<Item ID="260"/>
	<Item NAME="00260"/>
	<Item TLE="1 00260U 61015CG  10107.47742908  .00000369  00000-0  17671-3 0  9792 2 00260  66.7679 230.0593 0055802 197.9345 161.9786 14.28848816510027"/>
	<Item INCLINATION="66.767899999999997"/>
	<Item RAAN="230.059000000000000"/>
	<Item ECCENTRICITY="0.005580200000000"/>
	<Item PERIGEE="197.935000000000000"/>
	<Item MEAN_ANOMALY="161.979000000000010"/>
	<Item MEAN_MOTION="14.288500000000001"/>
	<Item Nation="7"/>
	<Item FlatType="1"/>
	<Item Mission="3"/>
	<Item SecretRank="0"/>
	<Item Apogee="835.000000000000000"/>
	<Item SatIconName="1.png#1.png"/>
	<Item SatModelName="北斗导航试验卫星"/>
</SateliteInfo>
<SateliteInfo>
	<Item ID="261"/>
	<Item NAME="00261"/>
	<Item TLE="1 00261U 61015CH  10108.48850250  .00000165  00000-0  16394-3 0  4560 2 00261  66.6825 357.9609 0083657  55.4269 305.4689 13.99030999485771"/>
	<Item INCLINATION="66.682500000000005"/>
	<Item RAAN="357.961000000000010"/>
	<Item ECCENTRICITY="0.008365700000000"/>
	<Item PERIGEE="55.426900000000003"/>
	<Item MEAN_ANOMALY="305.468999999999990"/>
	<Item MEAN_MOTION="13.990300000000000"/>
	<Item Nation="8"/>
	<Item FlatType="2"/>
	<Item Mission="4"/>
	<Item SecretRank="0"/>
	<Item Apogee="957.000000000000000"/>
	<Item SatIconName="1.png#1.png"/>
	<Item SatModelName="北斗导航试验卫星"/>
</SateliteInfo>
<SateliteInfo>
	<Item ID="579"/>
	<Item NAME="00579"/>
	<Item TLE="1 00579U 63014B   10108.62338073  .00094862  00000-0  11033-1 0  8411 2 00579  84.4027 345.6491 2219218 267.4766  67.2091 10.76644835499295"/>
	<Item INCLINATION="84.402699999999996"/>
	<Item RAAN="345.649000000000000"/>
	<Item ECCENTRICITY="0.221922000000000"/>
	<Item PERIGEE="267.476999999999980"/>
	<Item MEAN_ANOMALY="67.209100000000007"/>
	<Item MEAN_MOTION="10.766400000000001"/>
	<Item Nation="1"/>
	<Item FlatType="1"/>
	<Item Mission="1"/>
	<Item SecretRank="0"/>
	<Item Apogee="4207.000000000000000"/>
	<Item SatIconName="1.png#1.png"/>
	<Item SatModelName="北斗导航试验卫星"/>
</SateliteInfo>
</Satelite>
